#dP2022  1 29  0  0  0.00000000      96 __u+U ITR00 EXT  IAC
## 2194 518400.00000000   900.00000000 59608 0.0000000000000
+  113   C06C07C08C09C10C11C12C13C14C16C19C20C21C22C23C24C25
+        C26C27C28C29C30C32C33C34C35C36C37C38C39C40C41C42C43
+        C44C45C46E01E02E03E04E05E07E08E09E11E12E13E14E15E18
+        E19E21E24E25E26E27E30E31E33E36G01G02G03G04G05G06G07
+        G08G09G10G11G12G13G14G15G16G17G18G19G20G21G22G23G24
+        G25G26G27G28G29G30G31G32R01R02R03R04R05R07R08R09R11
+        R12R13R14R15R17R18R19R20R21R22R24  0  0  0  0  0  0
++        10  7  8 10  8  8  8  8 12 10  9 10  7  9  8  8  7
++         8  9  9  9  9  9  9  8  8  9  9  9  8 12  9  7  9
++         9  9  8  7  7  6  8  8  8  8  8  7  7  6  8  6  8
++         9  7  7  7  7  7  8  7  7  8  6  7  7  7  7  7  9
++         7  7  7  8  8  7  7  8  7  7  7  8  8  8  8  7  7
++         7  8  6  6  9  8  6  6  7  9  7  7  8  8  7  8  8
++         9  9  7  7  6  9 10  8  7  9  9  0  0  0  0  0  0
%c M  cc GPS ccc cccc cccc cccc cccc ccccc ccccc ccccc ccccc
%c cc cc ccc ccc cccc cccc cccc cccc ccccc ccccc ccccc ccccc
%f  0.0000000  0.000000000  0.00000000000  0.000000000000000
%f  0.0000000  0.000000000  0.00000000000  0.000000000000000
%i    0    0    0    0      0      0      0      0         0
%i    0    0    0    0      0      0      0      0         0
/* IAC                                ULTRA-RAPID PREDICTION
/* S/V CLOCKS ARE ALIGNED TO GNSS TIME                      
/* G:C1WC2W R:C1PC2P E:C1XC5X C:C2IC6I J:C1CC2S             
/* PCV:IGS14_2194 OL/AL:FES2004  NONE     YN ORB:CoN CLK:CoN
*  2022 01 29 20 30  0.00000000
PC06 -10861.268649  40655.079791   4034.272831    -39.099374
PC07  -3892.149506  28355.965282 -30919.002502     11.234111
PC08 -18127.673361  24704.364163  28900.574662     96.395995
PC09  -6514.076105  41620.714593  -4696.963415   -477.337487
PC10   3508.255248  30627.682685 -28326.512731    139.800997
PC11  -1688.271866  27235.128001   5841.481703   -240.290211
PC12 -12100.761755  22275.866122 -11613.704557   -435.452422
PC13 -10295.527668  25766.889909  31791.130082   -132.176720
PC14   7185.996080  21106.472260  16772.205118    461.593558
PC16 -11976.316498  40067.768432   6486.314695     69.158372
PC19 -15799.792353 -21191.485864  -8939.957617    903.867962
PC20    585.008974 -18337.078663 -21019.648723   -812.977151
PC21 -17672.527865   4225.531070  21201.228005   -966.553197
PC22 -23655.843760 -11950.687581   8773.281099   -958.263687
PC23  23771.079660   2513.674858 -14412.242863   -973.553154
PC24 -13128.425707  17729.730375 -17086.054770   -944.084856
PC25   8913.932511  13868.404626 -22527.603922   -787.148304
PC26 -25079.420746  11852.186124  -2862.697788    786.550544
PC27  15531.948966 -14426.409954  18123.072929    669.163863
PC28  14849.151634   6240.488435  22793.204994     26.625707
PC29  -6231.818533 -23345.316752 -13959.735906    508.085548
PC30   6607.379166 -26863.120120   3563.177483    492.246179
PC32  17667.134880  -4316.589851 -21149.147106   -961.029314
PC33  15811.592912  21132.733338   9053.272463   -955.220048
PC34  -6086.930251  27120.741732  -2651.736072   -480.758103
PC35 -14946.420203  -6494.685396 -22653.239539    115.693548
PC36  -8033.051123 -14311.518637  22585.681522   -884.065917
PC37  25754.751102 -10634.175536   1802.460674   -957.059991
PC38 -22991.900668  26244.806351  23591.516750    207.710303
PC39 -12685.828568  38510.246779  11870.193551     34.727703
PC40  -6503.215262  23448.171024 -34416.207807    239.913266
PC41  23662.546755  12210.323558  -8313.578292   -929.376383
PC42  -1612.569205  17889.991769  21396.954356   -929.493283
PC43   5781.832445  23801.348376  13391.495728   -944.955881
PC44 -15188.680759  14775.139540 -18184.600188    547.771148
PC45 -23840.390780  -2263.268180  14298.177854    666.797237
PC46  11862.144269 -17786.121807  17954.990927   -140.789197
PE01  15053.303224  16054.047606 -19804.430737   -569.015089
PE02 -15173.392427 -16013.940104  19718.622995    276.835408
PE03 -12669.884939 -26560.912731   3221.597834   -522.264149
PE04  19097.932012  12179.377831 -19055.250203   -953.382252
PE05   1330.512124 -25596.834807 -14803.725128   -213.986765
PE07 -14367.289059   9753.095581  23973.096156   -633.605482
PE08 -19057.708108 -11720.577474  19381.582641   5863.988389
PE09  14076.671161 -10004.375554 -24041.415344   5378.205919
PE11  21902.102600 -17453.103392   9558.447069   4570.927048
PE12  18359.316873   1211.481786  23187.718482   4785.502888
PE13 -21942.719568  17072.210445 -10161.570398    426.089483
PE14 -19020.015138 -18170.346240 -18985.938758  -1727.434231
PE15 -18243.783980  -1225.370185 -23266.250178    766.406399
PE18  13211.867251  14301.287265  13157.255736  -1854.177843
PE19  11165.301437  27404.285819   -874.208344    489.801913
PE21  -5882.565058  15790.501661 -24338.515143   -714.120122
PE24  25422.682733  -5579.590446  14112.976877  -1362.095793
PE25   6199.534890 -15718.409384  24307.469345   -561.897767
PE26 -12007.847196  25245.762143   9738.538282   -744.948718
PE27 -24607.128322   6462.169809 -15113.551564   -220.582954
PE30 -28369.160514  -7398.055069   3972.860033   -231.850681
PE31  28715.737900   6591.333484  -2924.279652   -491.443285
PE33   3800.373511  18738.575864  22609.301918   -459.922319
PE36  12735.803505 -25216.621570  -8813.328910   -324.978490
PG01  11296.118490 -20886.392367 -11809.305057    444.680991
PG02 -20697.157552  14245.500869  -8125.592586   -649.800542
PG03   3093.073219 -14725.087307 -21992.968652    -98.496774
PG04   1692.500085 -24800.007452  -9238.189072   -192.487755
PG05 -19094.211627   7250.614118  16898.203190    -69.606805
PG06 -17904.415351  -1041.355732 -19544.620114    185.474250
PG07  -4197.062378 -16337.154711  20785.174130    306.155455
PG08   8253.561917 -17678.907743  17838.955919    -54.099735
PG09  -7472.743847 -25423.076237   1447.368996   -356.232581
PG10  22951.921800  11860.837238   6937.539170   -306.347282
PG11 -22590.609635  10490.761597  -9209.442682    -92.670293
PG12  -6865.528916  13530.260569 -22056.541773   -163.180918
PG13 -13231.360278  10024.258583  20542.942546    253.221734
PG14 -22061.530266 -13036.819575   7107.653717    -77.327218
PG15  -6265.731384  19136.030044  16755.463489    -87.809449
PG16  22098.138172  -1881.921293  14689.125189   -462.498830
PG17 -12796.643190 -17927.816090 -14374.051004    568.078707
PG18   3645.098338  15958.726909  20891.454693    251.048707
PG19 -14748.869086 -10162.746050 -19932.746539    112.052692
PG20 -24859.511781   2739.065906   8553.860109    516.947809
PG21  17225.575902 -19704.130851   -822.608819    157.101587
PG22  15312.129901   6559.612388 -20334.344549    205.834544
PG23  14442.050776  15468.514407  16095.536679      6.308969
PG24 -12980.093983  21896.536757  -7084.027858    276.494688
PG25   7105.189739  16653.790520 -19805.761917    278.057362
PG26  26207.308491   4364.795598   2850.613460    178.729880
PG27  13607.810184  -6444.908968  21654.021492     94.800193
PG28 -24526.590302  -9826.087456   -302.420015    411.694741
PG29   3301.706706  26301.058307  -1162.286740   -473.622652
PG30 -12668.513632  -9725.337742  21306.706270   -510.048660
PG31  19900.208292   -738.439254 -17921.248925   -162.274678
PG32  15428.882097  13532.170464 -16839.972328    -58.649718
PR01 -15224.533927 -20195.495193  -3361.996715      7.090486
PR02 -17484.089407  -9816.970355  15766.719867    508.038836
PR03  -9175.562669   6050.887593  23059.760656     50.713757
PR04   4212.548323  18120.376533  17485.222341    125.588101
PR05  15179.678013  20397.993180   2227.412790     86.810260
PR07   8731.829669  -6552.976538 -23017.193783     31.150486
PR08  -4301.083378 -18187.462712 -17290.893970    -63.321866
PR09  24450.354055   -958.635038  -7068.999400     36.698748
PR11   7034.701592 -11661.514552  21572.300898     46.431575
PR12 -12851.608654  -7801.857146  20618.576814     17.040142
PR13 -24155.684551    426.783583   8152.857129    -17.643782
PR14 -21609.587219   8818.409960 -10297.411217     73.765939
PR15  -6382.492321  11660.370887 -21755.734560     98.572791
PR17 -13052.779582  17541.849335 -13094.107731    496.995620
PR18  -7759.686377  24098.936797   3368.872614    105.497506
PR19    525.943849  18675.252590  17372.950233   -176.243113
PR20  11018.642544    138.861920  23013.687353    -63.945703
PR21  12906.759222 -18520.341480  11905.292659   -273.934886
PR22   7432.740518 -23964.766131  -4301.785539   -161.298658
PR24 -11684.291841    715.033733 -22639.684384     77.849801
EOF
